[{"OBJECT_NAME":"LEMUR-2-AMANDA-SVANTE","OBJECT_ID":"2021-034B","EPOCH":"2026-03-09T18:37:58.823328","MEAN_MOTION":15.28469003,"ECCENTRICITY":0.00027027,"INCLINATION":97.5829,"RA_OF_ASC_NODE":144.8625,"ARG_OF_PERICENTER":205.4721,"MEAN_ANOMALY":154.6385,"EPHEMERIS_TYPE":0,"CLASSIFICATION_TYPE":"U","NORAD_CAT_ID":48269,"ELEMENT_SET_NO":999,"REV_AT_EPOCH":26584,"BSTAR":0.0011134246,"MEAN_MOTION_DOT":0.00030872,"MEAN_MOTION_DDOT":0},{"OBJECT_NAME":"STARLINK-30791","OBJECT_ID":"2023-167C","EPOCH":"2026-03-08T14:22:24.040704","MEAN_MOTION":15.26736371,"ECCENTRICITY":0.00013218,"INCLINATION":42.9987,"RA_OF_ASC_NODE":149.0936,"ARG_OF_PERICENTER":264.8741,"MEAN_ANOMALY":95.196,"EPHEMERIS_TYPE":0,"CLASSIFICATION_TYPE":"U","NORAD_CAT_ID":58177,"ELEMENT_SET_NO":999,"REV_AT_EPOCH":13082,"BSTAR":-6.3839658e-5,"MEAN_MOTION_DOT":-1.971e-5,"MEAN_MOTION_DDOT":0}]
